TRANSPORTER-11 OBJECT A 
1 60468U 24149A   26068.74646182  .00010774  00000+0  36054-3 0  9993
2 60468  97.3780 149.0949 0003110 191.0010 169.1164 15.31141332 86830
STARLINK-35345          
1 65833U 25221L   26068.35202101  .00029671  00000+0  10098-2 0  9997
2 65833  53.1584  89.7746 0001290  88.4744 271.6405 15.30204197 26039
